NORAD_CAT_ID,OBJECT_NAME,OBJECT_TYPE,EPOCH,MEAN_MOTION,ECCENTRICITY,INCLINATION,RA_OF_ASC_NODE,ARG_OF_PERICENTER,MEAN_ANOMALY,BSTAR,MEAN_MOTION_DOT,MEAN_MOTION_DDOT,TLE_LINE0,TLE_LINE1,TLE_LINE2,SEMIMAJOR_AXIS,PERIOD,APOGEE,PERIGEE,DECAYED
51115.0,STARLINK-3397,PAYLOAD,2023-01-11 20:07:20,15.08838386,0.00028,53.2179,64.4685,20.523000000000003,339.5874,9.2597e-05,1.185e-05,0.0,0 STARLINK-3397,1 51115U 22005M   23011.83843430  .00001185  00000-0  92597-4 0  9993,2 51115  53.2179  64.4685 0002800  20.5230 339.5874 15.08838386 54836,6917.885,95.438,541.687,537.813,0.0
51115.0,STARLINK-3397,PAYLOAD,2023-01-12 02:28:53,15.08836102,0.0002763,53.2188,63.2809,24.0015,336.1105,5.9267e-05,6.55e-06,0.0,0 STARLINK-3397,1 51115U 22005M   23012.10339627  .00000655  00000-0  59267-4 0  9990,2 51115  53.2188  63.2809 0002763  24.0015 336.1105 15.08836102 55980,6917.892,95.438,541.669,537.846,0.0
51115.0,STARLINK-3397,PAYLOAD,2023-01-12 19:58:08,15.08837232,0.0002433,53.2172,60.0102,27.8365,332.2757,0.00017012,2.42e-05,0.0,0 STARLINK-3397,1 51115U 22005M   23012.83203898  .00002420  00000-0  17012-3 0  9993,2 51115  53.2172  60.0102 0002433  27.8365 332.2757 15.08837232 54981,6917.889,95.438,541.437,538.071,0.0
51115.0,STARLINK-3397,PAYLOAD,2023-01-13 11:51:59,15.08849092,0.0002411,53.2174,57.0341,27.5524,332.5595,0.0001603,2.264e-05,0.0,0 STARLINK-3397,1 51115U 22005M   23013.49443436  .00002264  00000-0  16030-3 0  9995,2 51115  53.2174  57.0341 0002411  27.5524 332.5595 15.08849092 56199,6917.853,95.437,541.385,538.05,0.0
51115.0,STARLINK-3397,PAYLOAD,2023-01-13 19:48:55,15.08838679,0.0002746,53.218,55.5466,32.316,327.8,-3.9808e-06,-3.52e-06,0.0,0 STARLINK-3397,1 51115U 22005M   23013.82564172 -.00000352  00000-0 -39808-5 0  9991,2 51115  53.2180  55.5466 0002746  32.3160 327.8000 15.08838679 55138,6917.884,95.438,541.649,537.85,0.0
51115.0,STARLINK-3397,PAYLOAD,2023-01-14 02:10:28,15.08835682,0.0002682,53.2173,54.3568,32.1263,327.9892,0.00011604,1.559e-05,0.0,0 STARLINK-3397,1 51115U 22005M   23014.09060447  .00001559  00000-0  11604-3 0  9997,2 51115  53.2173  54.3568 0002682  32.1263 327.9892 15.08835682 56289,6917.894,95.438,541.614,537.903,0.0
51115.0,STARLINK-3397,PAYLOAD,2023-01-14 10:07:23,15.08850455,0.0002379,53.2188,52.8693,39.0091,321.1073,0.00022706,3.328e-05,0.0,0 STARLINK-3397,1 51115U 22005M   23014.42179655  .00003328  00000-0  22706-3 0  9997,2 51115  53.2188  52.8693 0002379  39.0091 321.1073 15.08850455 56333,6917.848000000001,95.437,541.359,538.068,0.0
51115.0,STARLINK-3397,PAYLOAD,2023-01-14 19:39:42,15.08842137,0.0002423,53.2186,51.0854,35.7005,324.4149,1.1227e-05,-1.1e-06,0.0,0 STARLINK-3397,1 51115U 22005M   23014.81924065 -.00000110  00000-0  11227-4 0  9997,2 51115  53.2186  51.0854 0002423  35.7005 324.4149 15.08842137 56393,6917.874,95.437,541.415,538.063,0.0
51115.0,STARLINK-3397,PAYLOAD,2023-01-15 02:01:15,15.08834097,0.0002411999999999,53.2165,49.8993,38.2965,321.8198,8.1012e-05,1.001e-05,0.0,0 STARLINK-3397,1 51115U 22005M   23015.08420694  .00001001  00000-0  81012-4 0  9994,2 51115  53.2165  49.8993 0002412  38.2965 321.8198 15.08834097 56436,6917.898,95.438,541.432,538.095,0.0
51115.0,STARLINK-3397,PAYLOAD,2023-01-15 08:22:48,15.0883712,0.0002273,53.2188,48.7078,43.56399999999999,316.5531,0.00011912,1.608e-05,0.0,0 STARLINK-3397,1 51115U 22005M   23015.34916730  .00001608  00000-0  11912-3 0  9998,2 51115  53.2188  48.7078 0002273  43.5640 316.5531 15.08837120 55360,6917.889,95.438,541.327,538.182,0.0
51115.0,STARLINK-3397,PAYLOAD,2023-01-15 19:30:29,15.08846411,0.0002276999999999,53.2188,46.626000000000005,47.2197,312.8987,0.00012009,1.624e-05,0.0,0 STARLINK-3397,1 51115U 22005M   23015.81284290  .00001624  00000-0  12009-3 0  9995,2 51115  53.2188  46.6260 0002277  47.2197 312.8987 15.08846411 56540,6917.861,95.437,541.3009999999999,538.151,0.0
51115.0,STARLINK-3397,PAYLOAD,2023-01-16 11:24:20,15.08875463,0.0002070999999999,53.2183,43.6519,56.1651,303.9538,0.0012344,0.00019431,0.0,0 STARLINK-3397,1 51115U 22005M   23016.47523636  .00019431  00000-0  12344-2 0  9994,2 51115  53.2183  43.6519 0002071  56.1651 303.9538 15.08875463 56648,6917.772,95.435,541.07,538.2040000000001,0.0
51115.0,STARLINK-3397,PAYLOAD,2023-01-17 01:42:49,15.08818569,0.0001645,53.2183,40.9767,40.2469,319.8645,-0.00054472,-8.942e-05,0.0,0 STARLINK-3397,1 51115U 22005M   23017.07140968 -.00008942  00000-0 -54472-3 0  9990,2 51115  53.2183  40.9767 0001645  40.2469 319.8645 15.08818569 56739,6917.946,95.439,540.9490000000001,538.673,0.0
51115.0,STARLINK-3397,PAYLOAD,2023-01-17 08:04:22,15.08812373,0.0001783,53.2182,39.7871,55.567,304.54900000000004,-0.00040271,-6.687e-05,0.0,0 STARLINK-3397,1 51115U 22005M   23017.33637543 -.00006687  00000-0 -40271-3 0  9995,2 51115  53.2182  39.7871 0001783  55.5670 304.5490 15.08812373 55663,6917.965,95.439,541.063,538.596,0.0
51115.0,STARLINK-3397,PAYLOAD,2023-01-18 07:55:10,15.08869662,0.0001786999999999,53.2185,35.3265,63.9487,296.1689,0.0019571,0.00031022,0.0,0 STARLINK-3397,1 51115U 22005M   23018.32997771  .00031022  00000-0  19571-2 0  9994,2 51115  53.2185  35.3265 0001787  63.9487 296.1689 15.08869662 56927,6917.79,95.436,540.891,538.419,0.0
51115.0,STARLINK-3397,PAYLOAD,2023-01-19 09:21:18,15.088838399999998,0.0001705,53.2186,30.5699,74.279,285.839,0.0019972,0.00031679,0.0,0 STARLINK-3397,1 51115U 22005M   23019.38980040  .00031679  00000-0  19972-2 0  9995,2 51115  53.2186  30.5699 0001705  74.2790 285.8390 15.08883840 57084,6917.746,95.435,540.7909999999999,538.432,0.0
51115.0,STARLINK-3397,PAYLOAD,2023-01-20 07:36:43,15.08848368,0.0001541,53.2184,26.406,94.7412,265.3756,0.0014971,0.00023624,0.0,0 STARLINK-3397,1 51115U 22005M   23020.31716590  .00023624  00000-0  14971-2 0  9992,2 51115  53.2184  26.4060 0001541  94.7412 265.3756 15.08848368 57225,6917.855,95.437,540.786,538.654,0.0
51115.0,STARLINK-3397,PAYLOAD,2023-01-20 17:09:02,15.08819929,0.0001520999999999,53.2176,24.6217,86.4412,273.6754,-0.00010158,-1.903e-05,0.0,0 STARLINK-3397,1 51115U 22005M   23020.71461012 -.00001903  00000-0 -10158-3 0  9994,2 51115  53.2176  24.6217 0001521  86.4412 273.6754 15.08819929 57283,6917.941999999999,95.439,540.859,538.755,0.0
51115.0,STARLINK-3397,PAYLOAD,2023-01-21 09:02:53,15.08850321,0.0001445,53.2176,21.6483,89.1897,270.9261,0.0022781,0.00036165,0.0,0 STARLINK-3397,1 51115U 22005M   23021.37701356  .00036165  00000-0  22781-2 0  9995,2 51115  53.2176  21.6483 0001445  89.1897 270.9261 15.08850321 57382,6917.849,95.437,540.7130000000001,538.714,0.0
51115.0,STARLINK-3397,PAYLOAD,2023-01-21 16:59:49,15.08848777,0.0001413,53.2185,20.1614,87.8156,272.2997,0.0011845999999999,0.0001862,0.0,0 STARLINK-3397,1 51115U 22005M   23021.70821448  .00018620  00000-0  11846-2 0  9993,2 51115  53.2185  20.1614 0001413  87.8156 272.2997 15.08848777 57439,6917.854,95.437,540.696,538.741,0.0
51115.0,STARLINK-3397,PAYLOAD,2023-01-22 07:18:17,15.08851844,0.0001317,53.219,17.4851,90.6772,269.4371,0.00070454,0.00010946,0.0,0 STARLINK-3397,1 51115U 22005M   23022.30437262  .00010946  00000-0  70454-3 0  9991,2 51115  53.2190  17.4851 0001317  90.6772 269.4371 15.08851844 57529,6917.844,95.437,540.62,538.798,0.0
51115.0,STARLINK-3397,PAYLOAD,2023-01-22 16:50:36,15.08846551,0.0001446,53.2191,15.7008,99.3762,260.7393,0.00053174,8.186e-05,0.0,0 STARLINK-3397,1 51115U 22005M   23022.70181413  .00008186  00000-0  53174-3 0  9992,2 51115  53.2191  15.7008 0001446  99.3762 260.7393 15.08846551 57586,6917.86,95.437,540.726,538.725,0.0
51115.0,STARLINK-3397,PAYLOAD,2023-01-23 08:44:28,15.088406400000002,0.0001318,53.2196,12.7262,110.9863,249.127,0.00025107,3.71e-05,0.0,0 STARLINK-3397,1 51115U 22005M   23023.36421522  .00003710  00000-0  25107-3 0  9996,2 51115  53.2196  12.7262 0001318 110.9863 249.1270 15.08840640 57689,6917.878000000001,95.438,540.655,538.832,0.0
51115.0,STARLINK-3397,PAYLOAD,2023-01-24 05:24:29,15.08838919,0.0001506999999999,53.2203,8.8594,107.971,252.1447,0.00038705,5.877e-05,0.0,0 STARLINK-3397,1 51115U 22005M   23024.22534287  .00005877  00000-0  38705-3 0  9999,2 51115  53.2203   8.8594 0001507 107.9710 252.1447 15.08838919 57810,6917.884,95.438,540.7909999999999,538.706,0.0
51115.0,STARLINK-3397,PAYLOAD,2023-01-25 08:26:02,15.08851227,0.0001235,53.22,3.8049,96.3971,263.7162,0.00058609,9.055e-05,0.0,0 STARLINK-3397,1 51115U 22005M   23025.35142247  .00009055  00000-0  58609-3 0  9992,2 51115  53.2200   3.8049 0001235  96.3971 263.7162 15.08851227 57982,6917.846,95.437,540.565,538.857,0.0
51115.0,STARLINK-3397,PAYLOAD,2023-01-26 01:55:17,15.08845946,0.0001281,53.2207,0.5338,91.5755,268.5384,0.00013761,1.903e-05,0.0,0 STARLINK-3397,1 51115U 22005M   23026.08006154  .00001903  00000-0  13761-3 0  9993,2 51115  53.2207   0.5338 0001281  91.5755 268.5384 15.08845946 58095,6917.861999999999,95.437,540.613,538.841,0.0
51115.0,STARLINK-3397,PAYLOAD,2023-01-26 08:16:49,15.0886321,0.000112,53.2199,359.3458,99.4253,260.6865,0.00063174,9.787e-05,0.0,0 STARLINK-3397,1 51115U 22005M   23026.34501567  .00009787  00000-0  63174-3 0  9991,2 51115  53.2199 359.3458 0001120  99.4253 260.6865 15.08863210 58131,6917.809,95.436,540.4490000000001,538.9,0.0
51115.0,STARLINK-3397,PAYLOAD,2023-01-27 01:46:04,15.08841284,0.0001210999999999,53.2198,356.0751,102.5728,257.54,0.00012117,1.641e-05,0.0,0 STARLINK-3397,1 51115U 22005M   23027.07365956  .00001641  00000-0  12117-3 0  9994,2 51115  53.2198 356.0751 0001211 102.5728 257.5400 15.08841284 58243,6917.876,95.437,540.5790000000001,538.904,0.0
51115.0,STARLINK-3397,PAYLOAD,2023-01-27 06:32:13,15.08842122,0.0001133,53.2193,355.1841,91.2763,268.8359,0.00025598,3.789e-05,0.0,0 STARLINK-3397,1 51115U 22005M   23027.27238041  .00003789  00000-0  25598-3 0  9992,2 51115  53.2193 355.1841 0001133  91.2763 268.8359 15.08842122 57164,6917.874,95.437,540.523,538.955,0.0
